BEIDOU 3 (C01)          
1 36287U 10001A   22097.92443691 -.00000281  00000+0  00000+0 0  9996
2 36287   1.9604  49.4081 0003337  11.8196 248.1349  1.00274284 44801
BEIDOU 5 (C06)          
1 36828U 10036A   22097.91762153 -.00000129  00000+0  00000+0 0  9992
2 36828  54.1902 176.8760 0027761 185.6521 272.3578  1.00266582 42871
BEIDOU 6 (C04)          
1 37210U 10057A   22098.27014640 -.00000113  00000+0  00000+0 0  9995
2 37210   0.7438  39.2259 0002283 200.4319 214.0769  1.00271739 41937
BEIDOU 7 (C07)          
1 37256U 10068A   22098.27110834 -.00000172  00000+0  00000+0 0  9994
2 37256  50.3372 290.4811 0018505 182.1748 290.1004  1.00271754 41446
BEIDOU 8 (C08)          
1 37384U 11013A   22097.59099383 -.00000169  00000+0  00000+0 0  9992
2 37384  60.1948  54.9578 0018501 194.6302 267.8156  1.00274426 40312
BEIDOU 9 (C09)          
1 37763U 11038A   22097.69959090 -.00000072  00000+0  00000+0 0  9994
2 37763  54.4726 179.3600 0095189 226.9302 133.7219  1.00293226 39292
BEIDOU 10 (C10)         
1 37948U 11073A   22097.29223286 -.00000128  00000+0  00000+0 0  9997
2 37948  50.4531 290.1276 0077263 217.4752 248.7902  1.00268713 38046
BEIDOU 11 (C05)         
1 38091U 12008A   22097.93079832  .00000057  00000+0  00000+0 0  9993
2 38091   1.4090  65.4493 0014811 322.0656 202.4042  1.00271315 37124
BEIDOU 12 (C11)         
1 38250U 12018A   22097.60911219 -.00000106  00000+0  00000+0 0  9995
2 38250  56.7124 355.8991 0021716 257.8747 334.7106  1.86234338 67760
BEIDOU 13 (C12)         
1 38251U 12018B   22097.32992785 -.00000107  00000+0  00000+0 0  9993
2 38251  56.6305 355.2392 0012789 264.9005 184.7533  1.86234191 67760
BEIDOU 15 (C14)         
1 38775U 12050B   22098.10223711  .00000030  00000+0  00000+0 0  9997
2 38775  55.3584 114.0514 0015079 318.4860 125.5188  1.86231270 65157
BEIDOU 16 (C02)         
1 38953U 12059A   22098.05673781 -.00000175  00000+0  00000+0 0  9995
2 38953   1.8144  84.4938 0013217 292.0561 284.1978  1.00270043 34691
BEIDOU 17 (C31)         
1 40549U 15019A   22096.92872317 -.00000146  00000+0  00000+0 0  9996
2 40549  52.0056 313.5834 0035577 188.3875 121.1211  1.00257619 25711
BEIDOU 18 (C57)         
1 40748U 15037A   22097.54882174 -.00000106  00000+0  00000+0 0  9994
2 40748  55.8850 354.1401 0005652  12.9247 133.0126  1.86233232 45596
BEIDOU 19 (C58)         
1 40749U 15037B   22097.29968144 -.00000107  00000+0  00000+0 0  9990
2 40749  55.8880 354.1386 0006396 337.7915 135.9278  1.86232117 45587
BEIDOU 20 (C18)         
1 40938U 15053A   22097.51044372 -.00000104  00000+0  00000+0 0  9998
2 40938  51.6114 276.6826 0044783 192.2908   5.6166  1.00262802 23985
BEIDOU IGSO-6 (C13)     
1 41434U 16021A   22096.71018900 -.00000129  00000+0  00000+0 0  9992
2 41434  57.9993  53.5742 0043065 219.8839 269.4073  1.00256663 22110
BEIDOU-2 G7 (C03)       
1 41586U 16037A   22097.89011802 -.00000354  00000+0  00000+0 0  9991
2 41586   1.8211  68.6926 0009206 359.2977 199.0480  1.00267144 21431
BEIDOU-3 M1 (C19)       
1 43001U 17069A   22097.29990124  .00000022  00000+0  00000+0 0  9999
2 43001  55.5118 114.0690 0012212 289.5391 132.7401  1.86231576 30078
BEIDOU-3 M2 (C20)       
1 43002U 17069B   22097.72106941  .00000026  00000+0  00000+0 0  9998
2 43002  55.5114 114.0912 0010196 306.2988  81.4779  1.86231343 30070
BEIDOU-3 M3 (C27)       
1 43107U 18003A   22097.69941646 -.00000107  00000+0  00000+0 0  9999
2 43107  55.3342 355.0840 0005581  43.5239 135.7787  1.86232393 28835
BEIDOU-3 M4 (C28)       
1 43108U 18003B   22097.63243049 -.00000107  00000+0  00000+0 0  9996
2 43108  55.3274 355.0753 0002695 277.9857 260.6938  1.86230838 28833
BEIDOU-3 M5 (C21)       
1 43207U 18018A   22097.27473462  .00000021  00000+0  00000+0 0  9990
2 43207  55.4713 114.1866 0007193 321.1360  38.8533  1.86231552 28212
BEIDOU-3 M6 (C22)       
1 43208U 18018B   22097.34136326  .00000022  00000+0  00000+0 0  9995
2 43208  55.4702 114.1889 0010236 297.6812  62.2548  1.86231647 28219
BEIDOU-3 M7 (C29)       
1 43245U 18029A   22097.83291220 -.00000105  00000+0  00000+0 0  9990
2 43245  55.2509 352.8528 0001432   6.7821 172.3976  1.86232509 27373
BEIDOU-3 M8 (C30)       
1 43246U 18029B   22097.76613834 -.00000105  00000+0  10000-3 0  9997
2 43246  55.2484 352.8852 0005308   0.0436 180.8396  1.86232677 27366
BEIDOU IGSO-7 (C16)     
1 43539U 18057A   22097.91748744 -.00000132  00000+0  00000+0 0  9994
2 43539  55.0729 176.3304 0047127 225.1927 236.3941  1.00279551 13807
BEIDOU-3 M9 (C23)       
1 43581U 18062A   22097.77629953  .00000010  00000+0  00000+0 0  9995
2 43581  54.2989 234.5026 0001899 297.3671 101.1532  1.86231805 25110
BEIDOU-3 M10 (C24)      
1 43582U 18062B   22097.57626200  .00000011  00000+0  00000+0 0  9997
2 43582  54.2994 234.4990 0005649  22.7943 333.3325  1.86232052 25108
BEIDOU-3 M11 (C25)      
1 43602U 18067A   22097.54955240  .00000010  00000+0  00000+0 0  9990
2 43602  54.3797 233.1082 0007222  14.7381   5.0065  1.86231598 24609
BEIDOU-3 M12 (C26)      
1 43603U 18067B   22097.60403811  .00000010  00000+0  00000+0 0  9990
2 43603  54.3770 233.0733 0004341   8.9760 317.6889  1.86231557 24610
BEIDOU-3 M13 (C32)      
1 43622U 18072A   22097.76449282  .00000026  00000+0  00000+0 0  9993
2 43622  55.4372 113.7277 0008818 284.8477 178.8799  1.86231543 24130
BEIDOU-3 M14 (C33)      
1 43623U 18072B   22098.14649098  .00000031  00000+0  00000+0 0  9990
2 43623  55.4394 113.7070 0006583 302.4249 147.6471  1.86231506 24148
BEIDOU-3 M15 (C34)      
1 43647U 18078A   22097.53335654 -.00000106  00000+0  10000-3 0  9993
2 43647  55.1455 353.0267 0007689   4.0465 290.4167  1.86232870 23636
BEIDOU-3 M16 (C35)      
1 43648U 18078B   22098.03365976 -.00000104  00000+0  00000+0 0  9993
2 43648  55.1419 353.0172 0005709  11.4730 166.3456  1.86232176 23664
BEIDOU-3 G1 (C59)       
1 43683U 18085A   22097.85265639 -.00000280  00000+0  00000+0 0  9999
2 43683   0.8438 178.5878 0002624 322.8119 141.5950  1.00267300 12695
BEIDOU-3 M17 (C36)      
1 43706U 18093A   22096.84629729  .00000013  00000+0  00000+0 0  9999
2 43706  54.3810 234.4150 0007895 275.6678  84.2098  1.86232011 23002
BEIDOU-3 M18 (C37)      
1 43707U 18093B   22097.27714498  .00000012  00000+0  00000+0 0  9995
2 43707  54.3818 234.3905 0006616 312.1647  67.7279  1.86232090 23005
BEIDOU-3 IGSO-1 (C38)   
1 44204U 19023A   22097.77664336 -.00000201  00000+0  00000+0 0  9993
2 44204  56.4589  53.7287 0019948 205.3026 335.8599  1.00279184 11000
BEIDOU-2 G8             
1 44231U 19027A   22097.92530909 -.00000248  00000+0  00000+0 0  9993
2 44231   0.6961  72.6411 0004257 140.7406 100.4016  1.00275441 10714
BEIDOU-3 IGSO-2 (C39)   
1 44337U 19035A   22097.83452580 -.00000134  00000+0  00000+0 0  9991
2 44337  55.1124 172.3551 0022996 193.8730 249.4813  1.00274571 10340
BEIDOU-3 M23 (C45)      
1 44542U 19061A   22097.31882038  .00000013  00000+0  00000+0 0  9991
2 44542  54.6069 234.5269 0007544 347.1547  12.7950  1.86231290 17265
BEIDOU-3 M24 (C46)      
1 44543U 19061B   22097.48249144  .00000012  00000+0  00000+0 0  9994
2 44543  54.6066 234.4898 0004794 346.6943  34.2005  1.86231603 17266
BEIDOU-3 IGSO-3         
1 44709U 19073A   22097.52699769 -.00000153  00000+0  00000+0 0  9995
2 44709  57.3782 297.1146 0021074 172.3465  35.5699  1.00277557  9099
BEIDOU-3 M21            
1 44793U 19078A   22097.43134006 -.00000107  00000+0  10000-3 0  9995
2 44793  54.9945 353.0631 0007587   8.0066 172.0628  1.86232085 16124
BEIDOU-3 M22            
1 44794U 19078B   22098.10087017 -.00000104  00000+0  00000+0 0  9992
2 44794  54.9688 353.0310 0005540   4.1357 176.3598  1.86232682 16137
BEIDOU-3 M19            
1 44864U 19090A   22097.15086093  .00000020  00000+0  00000+0 0  9997
2 44864  55.3717 113.9637 0018774 270.3445 187.7122  1.86231801 15709
BEIDOU-3 M20            
1 44865U 19090B   22097.53030902  .00000023  00000+0  00000+0 0  9991
2 44865  55.3739 113.9823 0017165 283.4265 158.9114  1.86231755 15685
BEIDOU-3 G2             
1 45344U 20017A   22098.12764616 -.00000143  00000+0  00000+0 0  9991
2 45344   2.1184 348.6034 0003137  79.6595 254.0850  1.00272418  7917
BEIDOU-3 G3             
1 45807U 20040A   22097.93214161 -.00000356  00000+0  00000+0 0  9990
2 45807   1.6039 301.6324 0007370 345.8467 354.7446  1.00267413  6719
